K24W38R 18.73  0.15 K2555  83.60638  318.60567   57.89208    3.54809  0.0143703  0.24681846   2.5170062  7 MPO886830    15   1   13 days 0.55 M-v 3Ek MPCLINUX   0000          2024 WR38          20241205
K24W46V 19.58  0.15 K2555  69.83640  315.30746   73.45386    2.11828  0.1885295  0.27918245   2.3185189  7 MPO886857    30   1   15 days 0.82 M-v 3Ek MPCLINUX   0000          2024 WV46          20241207
K24W77K 20.64  0.15 K2555 105.03667  125.28537  238.39655   18.69458  0.1049750  0.37212393   1.9143043  7 MPO886945    10   1   12 days 1.05 M-v 3Ek MPCLINUX   0006          2024 WK77          20241204
K24X24A 18.30  0.15 K2555  45.32921  110.13186  300.42161   12.31838  0.3142985  0.17589498   3.1547655  7 MPO887092    12   1   11 days 0.95 M-v 3Ek MPCLINUX   0000          2024 XA24          20241222
K23RE1N 18.18  0.15 K2555 118.98712  158.98445  176.27606    6.02116  0.1689591  0.18200796   3.0837261  8 MPO792800    10   1   14 days 0.56 M-v 3Ek Veres      2000          2023 RN141         20230920
K23S82V 18.45  0.15 K2555  78.39794   50.26755  356.81723   15.76963  0.2443777  0.18160853   3.0882460  8 MPO811344    11   1   26 days 0.36 M-v 3Ek Veres      2000          2023 SV82          20231015
K23T19M 17.67  0.15 K2555 124.96270  328.48462   25.22241   18.37824  0.0877167  0.18522846   3.0478779  8 MPO775442    16   1   11 days 0.65 M-v 3Ek Veres      2000          2023 TM19          20231016
K23T30Y 19.18  0.15 K2555 156.35899  143.08023  219.25054   11.16170  0.1146535  0.24938997   2.4996741  8 MPO775481    23   1   10 days 0.32 M-v 3Ek Veres      2000          2023 TY30          20231016
K23T43D 19.60  0.15 K2555 129.54205  182.11396  186.58183    8.35398  0.2203148  0.21707955   2.7419326  8 MPO775521    15   1   14 days 0.24 M-v 3Ek Veres      2000          2023 TD43          20231019
K23T84E 19.71  0.15 K2555 173.66640  325.34389   24.80693    3.59449  0.1932543  0.26828952   2.3808585  8 MPO775651    23   1   17 days 0.33 M-v 3Ek Veres      2000          2023 TE84          20231022
K23X37W 18.74  0.15 K2555 137.11759  130.37504  274.69832    8.56181  0.2905739  0.21374817   2.7703488  8 MPO811414    14   1   21 days 0.32 M-v 3Ek Veres      2000          2023 XW37          20240105
K24H07D 17.57  0.15 K2555  21.80243  222.76742   53.93031   16.89888  0.1750751  0.17399643   3.1776727  8 MPO825872    12   1    8 days 0.70 M-v 3Ek Veres      2000          2024 HD7           20240506
K24S25O 20.20  0.15 K2555  55.68437  136.40583  236.75022    2.57158  0.2378228  0.28942886   2.2634705  8 MPO872860    12   1   12 days 0.85 M-v 3Ek MPCLINUX   0000          2024 SO25          20241006
K24S39A 18.36  0.15 K2555 358.36175   56.68708   13.93682   10.90053  0.1411339  0.20221300   2.8747274  8 MPO872903    11   1   15 days 0.73 M-v 3Ek MPCLINUX   0000          2024 SA39          20241009
K23S04B 18.55  0.15 K2555  96.82463  258.52213  184.04443   22.19689  0.4561514  0.18182638   3.0857788  9 MPO775116    10   1    3 days 0.44 M-v 3Ek Bell       2000          2023 SB4           20230922
K23T29P 19.77  0.15 K2555 171.36230  176.82557  171.17828    1.04432  0.2020753  0.26652610   2.3913486  9 MPO775476    14   1   11 days 0.31 M-v 3Ek Veres      2000          2023 TP29          20231016
K24W11O 18.68  0.15 K2555  63.14485  172.07946  201.76753    0.52855  0.1794701  0.18534354   3.0466162  9 MPO886743    11   1    7 days 0.60 M-v 3Ek MPCLINUX   0000          2024 WO11          20241129
